CCSDS_OMM_VERS = 2.0
CREATION_DATE  = 
ORIGINATOR     = 

OBJECT_NAME    = SL-16 R/B
OBJECT_ID      = 1992-093B
CENTER_NAME    = EARTH
REF_FRAME      = TEME
TIME_SYSTEM    = UTC
MEAN_ELEMENT_THEORY = SGP/SGP4

EPOCH          = 2025-11-05T05:13:24.953088
MEAN_MOTION    = 14.15418422
ECCENTRICITY   = .00032898
INCLINATION    = 71.0203
RA_OF_ASC_NODE = 265.5591
ARG_OF_PERICENTER = 168.6309
MEAN_ANOMALY   = 191.4889

EPHEMERIS_TYPE = 0
CLASSIFICATION_TYPE = U
NORAD_CAT_ID   = 22285
ELEMENT_SET_NO = 999
REV_AT_EPOCH   = 69554
BSTAR          = .94075932E-4
MEAN_MOTION_DOT = .136E-5
MEAN_MOTION_DDOT = 0

CCSDS_OMM_VERS = 2.0
CREATION_DATE  = 
ORIGINATOR     = 

OBJECT_NAME    = COSMOS 2228
OBJECT_ID      = 1992-094A
CENTER_NAME    = EARTH
REF_FRAME      = TEME
TIME_SYSTEM    = UTC
MEAN_ELEMENT_THEORY = SGP/SGP4

EPOCH          = 2025-11-05T05:58:20.485344
MEAN_MOTION    = 14.96472150
ECCENTRICITY   = .00181001
INCLINATION    = 82.5199
RA_OF_ASC_NODE = 356.4017
ARG_OF_PERICENTER = 6.1775
MEAN_ANOMALY   = 353.9667

EPHEMERIS_TYPE = 0
CLASSIFICATION_TYPE = U
NORAD_CAT_ID   = 22286
ELEMENT_SET_NO = 999
REV_AT_EPOCH   = 75744
BSTAR          = .19197847E-3
MEAN_MOTION_DOT = .2211E-4
MEAN_MOTION_DDOT = 0

CCSDS_OMM_VERS = 2.0
CREATION_DATE  = 
ORIGINATOR     = 

OBJECT_NAME    = SL-16 R/B
OBJECT_ID      = 1993-016B
CENTER_NAME    = EARTH
REF_FRAME      = TEME
TIME_SYSTEM    = UTC
MEAN_ELEMENT_THEORY = SGP/SGP4

EPOCH          = 2025-11-04T21:24:52.871040
MEAN_MOTION    = 14.15278407
ECCENTRICITY   = .00094554
INCLINATION    = 71.0048
RA_OF_ASC_NODE = 117.2911
ARG_OF_PERICENTER = 166.3935
MEAN_ANOMALY   = 193.7445

EPHEMERIS_TYPE = 0
CLASSIFICATION_TYPE = U
NORAD_CAT_ID   = 22566
ELEMENT_SET_NO = 999
REV_AT_EPOCH   = 68451
BSTAR          = -.62701468E-4
MEAN_MOTION_DOT = -.17E-5
MEAN_MOTION_DDOT = 0

CCSDS_OMM_VERS = 2.0
CREATION_DATE  = 
ORIGINATOR     = 

OBJECT_NAME    = COSMOS 2242
OBJECT_ID      = 1993-024A
CENTER_NAME    = EARTH
REF_FRAME      = TEME
TIME_SYSTEM    = UTC
MEAN_ELEMENT_THEORY = SGP/SGP4

EPOCH          = 2025-11-05T02:41:31.418880
MEAN_MOTION    = 14.95870231
ECCENTRICITY   = .00165301
INCLINATION    = 82.5224
RA_OF_ASC_NODE = 25.7979
ARG_OF_PERICENTER = 9.6554
MEAN_ANOMALY   = 350.4982

EPHEMERIS_TYPE = 0
CLASSIFICATION_TYPE = U
NORAD_CAT_ID   = 22626
ELEMENT_SET_NO = 999
REV_AT_EPOCH   = 76176
BSTAR          = .19950753E-3
MEAN_MOTION_DOT = .2261E-4
MEAN_MOTION_DDOT = 0

CCSDS_OMM_VERS = 2.0
CREATION_DATE  = 
ORIGINATOR     = 

OBJECT_NAME    = SL-16 R/B
OBJECT_ID      = 1993-059B
CENTER_NAME    = EARTH
REF_FRAME      = TEME
TIME_SYSTEM    = UTC
MEAN_ELEMENT_THEORY = SGP/SGP4

EPOCH          = 2025-11-05T06:04:14.081664
MEAN_MOTION    = 14.17202069
ECCENTRICITY   = .00157394
INCLINATION    = 70.9891
RA_OF_ASC_NODE = 273.5335
ARG_OF_PERICENTER = 33.0793
MEAN_ANOMALY   = 327.1311

EPHEMERIS_TYPE = 0
CLASSIFICATION_TYPE = U
NORAD_CAT_ID   = 22803
ELEMENT_SET_NO = 999
REV_AT_EPOCH   = 66190
BSTAR          = -.31120302E-4
MEAN_MOTION_DOT = -.111E-5
MEAN_MOTION_DDOT = 0

CCSDS_OMM_VERS = 2.0
CREATION_DATE  = 
ORIGINATOR     = 

OBJECT_NAME    = ARIANE 40 R/B
OBJECT_ID      = 1993-061H
CENTER_NAME    = EARTH
REF_FRAME      = TEME
TIME_SYSTEM    = UTC
MEAN_ELEMENT_THEORY = SGP/SGP4

EPOCH          = 2025-11-05T04:29:23.522784
MEAN_MOTION    = 14.32764520
ECCENTRICITY   = .00096511
INCLINATION    = 98.5122
RA_OF_ASC_NODE = 15.3924
ARG_OF_PERICENTER = 294.9494
MEAN_ANOMALY   = 65.0687

EPHEMERIS_TYPE = 0
CLASSIFICATION_TYPE = U
NORAD_CAT_ID   = 22830
ELEMENT_SET_NO = 999
REV_AT_EPOCH   = 67627
BSTAR          = .11367455E-3
MEAN_MOTION_DOT = .266E-5
MEAN_MOTION_DDOT = 0

CCSDS_OMM_VERS = 2.0
CREATION_DATE  = 
ORIGINATOR     = 

OBJECT_NAME    = COSMOS 2278
OBJECT_ID      = 1994-023A
CENTER_NAME    = EARTH
REF_FRAME      = TEME
TIME_SYSTEM    = UTC
MEAN_ELEMENT_THEORY = SGP/SGP4

EPOCH          = 2025-11-05T01:14:06.407520
MEAN_MOTION    = 14.14331675
ECCENTRICITY   = .00103694
INCLINATION    = 71.0522
RA_OF_ASC_NODE = 75.8561
ARG_OF_PERICENTER = 227.9909
MEAN_ANOMALY   = 132.0332

EPHEMERIS_TYPE = 0
CLASSIFICATION_TYPE = U
NORAD_CAT_ID   = 23087
ELEMENT_SET_NO = 999
REV_AT_EPOCH   = 62718
BSTAR          = .71165945E-4
MEAN_MOTION_DOT = .89E-6
MEAN_MOTION_DDOT = 0

CCSDS_OMM_VERS = 2.0
CREATION_DATE  = 
ORIGINATOR     = 

OBJECT_NAME    = SL-16 R/B
OBJECT_ID      = 1994-023B
CENTER_NAME    = EARTH
REF_FRAME      = TEME
TIME_SYSTEM    = UTC
MEAN_ELEMENT_THEORY = SGP/SGP4

EPOCH          = 2025-11-05T05:24:58.171392
MEAN_MOTION    = 14.14993076
ECCENTRICITY   = .00018293
INCLINATION    = 71.0009
RA_OF_ASC_NODE = 332.2695
ARG_OF_PERICENTER = 176.5177
MEAN_ANOMALY   = 183.5959

EPHEMERIS_TYPE = 0
CLASSIFICATION_TYPE = U
NORAD_CAT_ID   = 23088
ELEMENT_SET_NO = 999
REV_AT_EPOCH   = 62848
BSTAR          = .6435453E-5
MEAN_MOTION_DOT = -.35E-6
MEAN_MOTION_DDOT = 0

CCSDS_OMM_VERS = 2.0
CREATION_DATE  = 
ORIGINATOR     = 

OBJECT_NAME    = SL-16 R/B
OBJECT_ID      = 1994-074B
CENTER_NAME    = EARTH
REF_FRAME      = TEME
TIME_SYSTEM    = UTC
MEAN_ELEMENT_THEORY = SGP/SGP4

EPOCH          = 2025-11-05T01:32:18.933792
MEAN_MOTION    = 14.79221803
ECCENTRICITY   = .00051189
INCLINATION    = 97.7253
RA_OF_ASC_NODE = 339.8571
ARG_OF_PERICENTER = 266.7407
MEAN_ANOMALY   = 147.3359

EPHEMERIS_TYPE = 0
CLASSIFICATION_TYPE = U
NORAD_CAT_ID   = 23343
ELEMENT_SET_NO = 999
REV_AT_EPOCH   = 66882
BSTAR          = .77882671E-4
MEAN_MOTION_DOT = .529E-5
MEAN_MOTION_DDOT = 0

CCSDS_OMM_VERS = 2.0
CREATION_DATE  = 
ORIGINATOR     = 

OBJECT_NAME    = SL-16 R/B
OBJECT_ID      = 1994-077B
CENTER_NAME    = EARTH
REF_FRAME      = TEME
TIME_SYSTEM    = UTC
MEAN_ELEMENT_THEORY = SGP/SGP4

EPOCH          = 2025-11-05T06:08:23.222976
MEAN_MOTION    = 14.15539154
ECCENTRICITY   = .00035772
INCLINATION    = 70.9818
RA_OF_ASC_NODE = 254.2672
ARG_OF_PERICENTER = 314.4266
MEAN_ANOMALY   = 45.6563

EPHEMERIS_TYPE = 0
CLASSIFICATION_TYPE = U
NORAD_CAT_ID   = 23405
ELEMENT_SET_NO = 999
REV_AT_EPOCH   = 59862
BSTAR          = .11286871E-3
MEAN_MOTION_DOT = .173E-5
MEAN_MOTION_DDOT = 0

CCSDS_OMM_VERS = 2.0
CREATION_DATE  = 
ORIGINATOR     = 

OBJECT_NAME    = ARIANE 40+ R/B
OBJECT_ID      = 1995-021B
CENTER_NAME    = EARTH
REF_FRAME      = TEME
TIME_SYSTEM    = UTC
MEAN_ELEMENT_THEORY = SGP/SGP4

EPOCH          = 2025-11-05T04:57:41.904000
MEAN_MOTION    = 14.39649513
ECCENTRICITY   = .00074241
INCLINATION    = 98.4694
RA_OF_ASC_NODE = 17.2414
ARG_OF_PERICENTER = 147.5949
MEAN_ANOMALY   = 275.2960

EPHEMERIS_TYPE = 0
CLASSIFICATION_TYPE = U
NORAD_CAT_ID   = 23561
ELEMENT_SET_NO = 999
REV_AT_EPOCH   = 60133
BSTAR          = .14616082E-3
MEAN_MOTION_DOT = .413E-5
MEAN_MOTION_DDOT = 0

CCSDS_OMM_VERS = 2.0
CREATION_DATE  = 
ORIGINATOR     = 

OBJECT_NAME    = SL-16 R/B
OBJECT_ID      = 1995-058B
CENTER_NAME    = EARTH
REF_FRAME      = TEME
TIME_SYSTEM    = UTC
MEAN_ELEMENT_THEORY = SGP/SGP4

EPOCH          = 2025-11-05T02:46:02.181792
MEAN_MOTION    = 14.15474015
ECCENTRICITY   = .00144188
INCLINATION    = 71.0209
RA_OF_ASC_NODE = 81.7927
ARG_OF_PERICENTER = 304.1426
MEAN_ANOMALY   = 55.8328

EPHEMERIS_TYPE = 0
CLASSIFICATION_TYPE = U
NORAD_CAT_ID   = 23705
ELEMENT_SET_NO = 999
REV_AT_EPOCH   = 55022
BSTAR          = .13933771E-3
MEAN_MOTION_DOT = .225E-5
MEAN_MOTION_DDOT = 0

