SL-16 R/B               
1 22285U 92093B   25309.21764992  .00000136  00000+0  94076-4 0  9990
2 22285  71.0203 265.5591 0003289 168.6309 191.4889 14.15418422695543
COSMOS 2228             
1 22286U 92094A   25309.24884821  .00002211  00000+0  19198-3 0  9996
2 22286  82.5199 356.4017 0018100   6.1775 353.9667 14.96472150757443
SL-16 R/B               
1 22566U 93016B   25308.89227860 -.00000170  00000+0 -62701-4 0  9999
2 22566  71.0048 117.2911 0009455 166.3935 193.7445 14.15278407684517
COSMOS 2242             
1 22626U 93024A   25309.11216920  .00002261  00000+0  19951-3 0  9995
2 22626  82.5224  25.7979 0016530   9.6554 350.4982 14.95870231761764
SL-16 R/B               
1 22803U 93059B   25309.25294076 -.00000111  00000+0 -31120-4 0  9990
2 22803  70.9891 273.5335 0015739  33.0793 327.1311 14.17202069661901
ARIANE 40 R/B           
1 22830U 93061H   25309.18707781  .00000266  00000+0  11367-3 0  9996
2 22830  98.5122  15.3924 0009651 294.9494  65.0687 14.32764520676274
COSMOS 2278             
1 23087U 94023A   25309.05146305  .00000089  00000+0  71166-4 0  9992
2 23087  71.0522  75.8561 0010369 227.9909 132.0332 14.14331675627181
SL-16 R/B               
1 23088U 94023B   25309.22567328 -.00000035  00000+0  64355-5 0  9999
2 23088  71.0009 332.2695 0001829 176.5177 183.5959 14.14993076628486
SL-16 R/B               
1 23343U 94074B   25309.06410803  .00000529  00000+0  77883-4 0  9992
2 23343  97.7253 339.8571 0005118 266.7407 147.3359 14.79221803668822
SL-16 R/B               
1 23405U 94077B   25309.25582434  .00000173  00000+0  11287-3 0  9995
2 23405  70.9818 254.2672 0003577 314.4266  45.6563 14.15539154598622
ARIANE 40+ R/B          
1 23561U 95021B   25309.20673500  .00000413  00000+0  14616-3 0  9994
2 23561  98.4694  17.2414 0007424 147.5949 275.2960 14.39649513601333
SL-16 R/B               
1 23705U 95058B   25309.11530303  .00000225  00000+0  13934-3 0  9990
2 23705  71.0209  81.7927 0014418 304.1426  55.8328 14.15474015550227
